{"type": "FeatureCollection", "features": [ {"type": "Feature", "properties": {"norad_id": 28659, "name": "DIRECTV 8", "group": "intelsat", "lat": -0.02557572230552678, "lon": -49.778740138261114, "alt_km": 35776.092435408595, "timestamp": "2025-12-19T22:41:52.046874+00:00", "meta": {"OBJECT_NAME": "DIRECTV 8", "OBJECT_ID": "2005-019A", "EPOCH": "2025-12-19T17:49:48.179136", "MEAN_MOTION": 1.0027119, "ECCENTRICITY": 0.0002837, "INCLINATION": 0.0186, "RA_OF_ASC_NODE": 339.2172, "ARG_OF_PERICENTER": 298.7344, "MEAN_ANOMALY": 319.047, "EPHEMERIS_TYPE": 0, "CLASSIFICATION_TYPE": "U", "NORAD_CAT_ID": 28659, "ELEMENT_SET_NO": 999, "REV_AT_EPOCH": 7527, "BSTAR": 0, "MEAN_MOTION_DOT": 2.6e-07, "MEAN_MOTION_DDOT": 0}, "tle": {"line1": "1 28659U 05019A   25353.74291874  .00000026  00000+0  00000+0 0  9991", "line2": "2 28659   0.0186 339.2172 0002837 298.7344 319.0470  1.00271190 75277"}}, "geometry": {"type": "Point", "coordinates": [-49.778740138261114, -0.02557572230552678]}}, {"type": "Feature", "properties": {"norad_id": 28702, "name": "GALAXY 28 (G-28)", "group": "intelsat", "lat": -2.798277188574397, "lon": -19.414871219745706, "alt_km": 35781.72726129837, "timestamp": "2025-12-19T22:41:52.046886+00:00", "meta": {"OBJECT_NAME": "GALAXY 28 (G-28)", "OBJECT_ID": "2005-022A", "EPOCH": "2025-12-19T11:26:27.362976", "MEAN_MOTION": 1.00271143, "ECCENTRICITY": 0.000292, "INCLINATION": 2.8368, "RA_OF_ASC_NODE": 81.2048, "ARG_OF_PERICENTER": 192.9214, "MEAN_ANOMALY": 257.1318, "EPHEMERIS_TYPE": 0, "CLASSIFICATION_TYPE": "U", "NORAD_CAT_ID": 28702, "ELEMENT_SET_NO": 999, "REV_AT_EPOCH": 5017, "BSTAR": 0, "MEAN_MOTION_DOT": -1.65e-06, "MEAN_MOTION_DDOT": 0}, "tle": {"line1": "1 28702U 05022A   25353.47670559 -.00000165  00000+0  00000+0 0  9990", "line2": "2 28702   2.8368  81.2048 0002920 192.9214 257.1318  1.00271143 50171"}}, "geometry": {"type": "Point", "coordinates": [-19.414871219745706, -2.798277188574397]}}, {"type": "Feature", "properties": {"norad_id": 29236, "name": "GALAXY 16 (G-16)", "group": "intelsat", "lat": 0.001276394425653518, "lon": -29.73395325822672, "alt_km": 35781.770151802455, "timestamp": "2025-12-19T22:41:52.046898+00:00", "meta": {"OBJECT_NAME": "GALAXY 16 (G-16)", "OBJECT_ID": "2006-023A", "EPOCH": "2025-12-19T16:13:00.599232", "MEAN_MOTION": 1.00271377, "ECCENTRICITY": 0.0002459, "INCLINATION": 0.0099, "RA_OF_ASC_NODE": 281.5526, "ARG_OF_PERICENTER": 343.8608, "MEAN_ANOMALY": 327.3572, "EPHEMERIS_TYPE": 0, "CLASSIFICATION_TYPE": "U", "NORAD_CAT_ID": 29236, "ELEMENT_SET_NO": 999, "REV_AT_EPOCH": 7117, "BSTAR": 0, "MEAN_MOTION_DOT": -1.02e-06, "MEAN_MOTION_DDOT": 0}, "tle": {"line1": "1 29236U 06023A   25353.67570138 -.00000102  00000+0  00000+0 0  9990", "line2": "2 29236   0.0099 281.5526 0002459 343.8608 327.3572  1.00271377 71176"}}, "geometry": {"type": "Point", "coordinates": [-29.73395325822672, 0.001276394425653518]}}, {"type": "Feature", "properties": {"norad_id": 29494, "name": "DIRECTV 9S", "group": "intelsat", "lat": -1.7866373626753185, "lon": -31.95023084222475, "alt_km": 35779.32654715446, "timestamp": "2025-12-19T22:41:52.046910+00:00", "meta": {"OBJECT_NAME": "DIRECTV 9S", "OBJECT_ID": "2006-043A", "EPOCH": "2025-12-19T13:25:20.116704", "MEAN_MOTION": 1.00271735, "ECCENTRICITY": 0.0002813, "INCLINATION": 1.9568, "RA_OF_ASC_NODE": 83.1418, "ARG_OF_PERICENTER": 191.001, "MEAN_ANOMALY": 274.3862, "EPHEMERIS_TYPE": 0, "CLASSIFICATION_TYPE": "U", "NORAD_CAT_ID": 29494, "ELEMENT_SET_NO": 999, "REV_AT_EPOCH": 4958, "BSTAR": 0, "MEAN_MOTION_DOT": -9e-07, "MEAN_MOTION_DDOT": 0}, "tle": {"line1": "1 29494U 06043A   25353.55926061 -.00000090  00000+0  00000+0 0  9991", "line2": "2 29494   1.9568  83.1418 0002813 191.0010 274.3862  1.00271735 49584"}}, "geometry": {"type": "Point", "coordinates": [-31.95023084222475, -1.7866373626753185]}}, {"type": "Feature", "properties": {"norad_id": 31307, "name": "GALAXY 17 (G-17)", "group": "intelsat", "lat": -2.500412044178632, "lon": -15.658580331205254, "alt_km": 35787.129784469784, "timestamp": "2025-12-19T22:41:52.046922+00:00", "meta": {"OBJECT_NAME": "GALAXY 17 (G-17)", "OBJECT_ID": "2007-016B", "EPOCH": "2025-12-19T12:51:34.890336", "MEAN_MOTION": 1.00272466, "ECCENTRICITY": 0.0005441, "INCLINATION": 2.5163, "RA_OF_ASC_NODE": 82.2108, "ARG_OF_PERICENTER": 169.7532, "MEAN_ANOMALY": 304.3514, "EPHEMERIS_TYPE": 0, "CLASSIFICATION_TYPE": "U", "NORAD_CAT_ID": 31307, "ELEMENT_SET_NO": 999, "REV_AT_EPOCH": 6800, "BSTAR": 0, "MEAN_MOTION_DOT": -1.84e-06, "MEAN_MOTION_DDOT": 0}, "tle": {"line1": "1 31307U 07016B   25353.53582049 -.00000184  00000+0  00000+0 0  9994", "line2": "2 31307   2.5163  82.2108 0005441 169.7532 304.3514  1.00272466 68003"}}, "geometry": {"type": "Point", "coordinates": [-15.658580331205254, -2.500412044178632]}}, {"type": "Feature", "properties": {"norad_id": 31862, "name": "DIRECTV 10", "group": "intelsat", "lat": 0.0031682408709667563, "lon": -33.560767670670835, "alt_km": 35787.32356458443, "timestamp": "2025-12-19T22:41:52.046934+00:00", "meta": {"OBJECT_NAME": "DIRECTV 10", "OBJECT_ID": "2007-032A", "EPOCH": "2025-12-19T16:12:00.693792", "MEAN_MOTION": 1.00269963, "ECCENTRICITY": 2.45e-05, "INCLINATION": 0.0206, "RA_OF_ASC_NODE": 171.3699, "ARG_OF_PERICENTER": 19.9957, "MEAN_ANOMALY": 37.3529, "EPHEMERIS_TYPE": 0, "CLASSIFICATION_TYPE": "U", "NORAD_CAT_ID": 31862, "ELEMENT_SET_NO": 999, "REV_AT_EPOCH": 4379, "BSTAR": 0, "MEAN_MOTION_DOT": -7.8e-07, "MEAN_MOTION_DDOT": 0}, "tle": {"line1": "1 31862U 07032A   25353.67500803 -.00000078  00000+0  00000+0 0  9993", "line2": "2 31862   0.0206 171.3699 0000245  19.9957  37.3529  1.00269963 43795"}}, "geometry": {"type": "Point", "coordinates": [-33.560767670670835, 0.0031682408709667563]}}, {"type": "Feature", "properties": {"norad_id": 32253, "name": "INTELSAT 11 (IS-11)", "group": "intelsat", "lat": -0.15518448301991558, "lon": -96.74466113643497, "alt_km": 36096.084733951844, "timestamp": "2025-12-19T22:41:52.046946+00:00", "meta": {"OBJECT_NAME": "INTELSAT 11 (IS-11)", "OBJECT_ID": "2007-044B", "EPOCH": "2025-12-19T15:54:17.392320", "MEAN_MOTION": 0.99051924, "ECCENTRICITY": 0.0008546, "INCLINATION": 3.0972, "RA_OF_ASC_NODE": 80.9007, "ARG_OF_PERICENTER": 168.5699, "MEAN_ANOMALY": 272.8399, "EPHEMERIS_TYPE": 0, "CLASSIFICATION_TYPE": "U", "NORAD_CAT_ID": 32253, "ELEMENT_SET_NO": 999, "REV_AT_EPOCH": 6667, "BSTAR": 0, "MEAN_MOTION_DOT": -3.8e-07, "MEAN_MOTION_DDOT": 0}, "tle": {"line1": "1 32253U 07044B   25353.66270130 -.00000038  00000+0  00000+0 0  9993", "line2": "2 32253   3.0972  80.9007 0008546 168.5699 272.8399  0.99051924 66673"}}, "geometry": {"type": "Point", "coordinates": [-96.74466113643497, -0.15518448301991558]}}, {"type": "Feature", "properties": {"norad_id": 32388, "name": "HORIZONS-2", "group": "intelsat", "lat": -2.1380445222118345, "lon": -4.4818332124020674, "alt_km": 35782.8378485479, "timestamp": "2025-12-19T22:41:52.046958+00:00", "meta": {"OBJECT_NAME": "HORIZONS-2", "OBJECT_ID": "2007-063B", "EPOCH": "2025-12-19T11:12:06.914880", "MEAN_MOTION": 1.00272112, "ECCENTRICITY": 0.0004573, "INCLINATION": 2.1381, "RA_OF_ASC_NODE": 82.8899, "ARG_OF_PERICENTER": 193.0315, "MEAN_ANOMALY": 266.6388, "EPHEMERIS_TYPE": 0, "CLASSIFICATION_TYPE": "U", "NORAD_CAT_ID": 32388, "ELEMENT_SET_NO": 999, "REV_AT_EPOCH": 6601, "BSTAR": 0, "MEAN_MOTION_DOT": -2.31e-06, "MEAN_MOTION_DDOT": 0}, "tle": {"line1": "1 32388U 07063B   25353.46674670 -.00000231  00000+0  00000+0 0  9993", "line2": "2 32388   2.1381  82.8899 0004573 193.0315 266.6388  1.00272112 66014"}}, "geometry": {"type": "Point", "coordinates": [-4.4818332124020674, -2.1380445222118345]}}, {"type": "Feature", "properties": {"norad_id": 32729, "name": "DIRECTV 11", "group": "intelsat", "lat": 0.0033174984709384444, "lon": -29.94116398663705, "alt_km": 35788.467130273624, "timestamp": "2025-12-19T22:41:52.046970+00:00", "meta": {"OBJECT_NAME": "DIRECTV 11", "OBJECT_ID": "2008-013A", "EPOCH": "2025-12-19T12:47:20.296320", "MEAN_MOTION": 1.0027114, "ECCENTRICITY": 5.44e-05, "INCLINATION": 0.0444, "RA_OF_ASC_NODE": 196.1634, "ARG_OF_PERICENTER": 330.0359, "MEAN_ANOMALY": 14.8298, "EPHEMERIS_TYPE": 0, "CLASSIFICATION_TYPE": "U", "NORAD_CAT_ID": 32729, "ELEMENT_SET_NO": 999, "REV_AT_EPOCH": 4379, "BSTAR": 0, "MEAN_MOTION_DOT": -1.01e-06, "MEAN_MOTION_DDOT": 0}, "tle": {"line1": "1 32729U 08013A   25353.53287380 -.00000101  00000+0  00000+0 0  9990", "line2": "2 32729   0.0444 196.1634 0000544 330.0359  14.8298  1.00271140 43794"}}, "geometry": {"type": "Point", "coordinates": [-29.94116398663705, 0.0033174984709384444]}}, {"type": "Feature", "properties": {"norad_id": 32951, "name": "GALAXY 18 (G-18)", "group": "intelsat", "lat": -0.0298175051055682, "lon": -53.74719398516417, "alt_km": 35776.36119133323, "timestamp": "2025-12-19T22:41:52.046981+00:00", "meta": {"OBJECT_NAME": "GALAXY 18 (G-18)", "OBJECT_ID": "2008-024A", "EPOCH": "2025-12-19T17:48:48.275424", "MEAN_MOTION": 1.00270899, "ECCENTRICITY": 0.0002814, "INCLINATION": 0.0134, "RA_OF_ASC_NODE": 45.0802, "ARG_OF_PERICENTER": 227.8761, "MEAN_ANOMALY": 319.8233, "EPHEMERIS_TYPE": 0, "CLASSIFICATION_TYPE": "U", "NORAD_CAT_ID": 32951, "ELEMENT_SET_NO": 999, "REV_AT_EPOCH": 4405, "BSTAR": 0, "MEAN_MOTION_DOT": 5e-07, "MEAN_MOTION_DDOT": 0}, "tle": {"line1": "1 32951U 08024A   25353.74222541  .00000050  00000+0  00000+0 0  9992", "line2": "2 32951   0.0134  45.0802 0002814 227.8761 319.8233  1.00270899 44055"}}, "geometry": {"type": "Point", "coordinates": [-53.74719398516417, -0.0298175051055682]}}]}